location_id,city,state,country,address,zip_code,latitude,longitude
1,Montreal,,CA,536 Avenue Duluth E,,45.522169,-73.57445
2,Montreal,,CA,3927 Rue Saint-Denis,,45.52032,-73.57437
3,Montreal,,CA,994 Rue Rachel E,,45.525354,-73.574769
4,Montreal,,CA,22 Rue Ste-Catherine East,,45.51010242374259,-73.56343199999999
5,Montreal,,CA,360 Rue Rachel E,,45.52128,-73.57842
6,Montreal,,CA,1425 Rue Stanley,,45.499686,-73.574147
7,Montreal,,CA,4105 Boulevard Saint-Laurent,,45.5175436,-73.5802618
8,Montreal,,CA,1 Rue Saint-Paul O,,45.50548,-73.55396
9,Montreal,,CA,1465 Rue Crescent,,45.498066,-73.577052
10,Montreal,,CA,447 Rue Saint-François-Xavier,,45.503344,-73.556115
11,Montreal,,CA,170 Rue Prince Arthur E,,45.51551334829121,-73.57096217359745
12,Montreal,,CA,1365 Rue Ontario E,,45.523205,-73.5613
13,Montreal,,CA,922 Avenue du Mont-Royal E,,45.5266781712886,-73.5802391312828
14,Montreal,,CA,406 Rue Saint-Jacques,,45.50158,-73.55962
15,Montreal,,CA,1116 Rue Sainte-Catherine Ouest,,45.49959,-73.57294
16,Montreal,,CA,969 Rue Rachel E,,45.5251692,-73.5752667883391
17,Montreal,,CA,3895 Boulevard Saint-Laurent,,45.516353,-73.577642
18,Montreal,,CA,1201 Avenue Van Horne,,45.52258,-73.61344
19,Montreal,,CA,1446 Rue Peel,,45.50032,-73.57415
20,Montreal,,CA,4475 Rue Saint-Denis,,45.5239019496467,-73.5824299603701
21,Montreal,,CA,1844 Rue Sainte-Catherine O,,45.492867,-73.580078
22,Montreal,,CA,4552 Rue Saint-Denis,,45.52426823888716,-73.58393073864245
23,Montreal,,CA,312 Rue Saint-Paul O,,45.50138,-73.55592
24,Montreal,,CA,1431 Boulevard Saint-Laurent,,45.5103,-73.564418
25,Montreal,,CA,174-176 Rue Saint-Viateur O,,45.52352,-73.60079
26,Montreal,,CA,219 Ave du Mont Royal W,,45.5224024,-73.5844894
27,Montreal,,CA,2491 Rue Notre-Dame Ouest,,45.483062,-73.575308
28,Montreal,,CA,1249 Rue Metcalfe,,45.500616619166614,-73.57158873558198
29,Montreal,,CA,73 Rue Prince Arthur E,,45.514992,-73.572048
30,Montreal,,CA,1065 Rue de la Montagne,,45.4964748,-73.5717854
31,Montreal,,CA,1045 Avenue Laurier O,,45.51832,-73.59735
32,Montreal,,CA,1206 Avenue Union,,45.502978,-73.567959
33,Montreal,,CA,1440 Rue Drummond,,45.49914524060438,-73.575678
34,Montreal,,CA,900 Place Jean-Paul-Riopelle,,45.5029475,-73.5612041
35,Montreal,,CA,1255 Rue Crescent,,45.49681,-73.5746
36,Montreal,,CA,1223 Rue du Square-Phillips,,45.50407,-73.56807
37,Montreal,,CA,410 Rue Saint Vincent,,45.50696,-73.55324
38,Montreal,,CA,124 Rue Prince Arthur E,,45.515113,-73.571405
39,Montreal,,CA,424 Avenue Duluth E,,45.521106,-73.575346
40,Montreal,,CA,4185 Rue Drolet,,45.5212206164378,-73.578518757916
41,Montreal,,CA,5357 Ave Du Parc,,45.52169101888991,-73.60049302269982
42,Montreal,,CA,1433 City Councillors,,45.5049159,-73.5686505
43,Montreal,,CA,4007 Rue Saint-Denis,,45.52086,-73.57556
44,Montreal,,CA,1184 Place Phillips,,45.503313,-73.567344
45,Montreal,,CA,5 Place Ville Marie,,45.5007523,-73.5694969
46,Montreal,,CA,479 Rue Saint-Alexis,,45.50275,-73.55798
47,Montreal,,CA,1076 Rue de Bleury,,45.50434,-73.56348
48,Montreal,,CA,9 Avenue Fairmount E,,45.524143,-73.5946503
49,Montreal,,CA,1228 Rue Sherbrooke O,,45.49985,-73.5779699
50,Montreal,,CA,1250 Rue de Bleury,,45.5060324,-73.566685
51,Montreal,,CA,1504 Rue Sherbrooke O,,45.49696960899045,-73.5809371404922
52,Montreal,,CA,25 Saint Paul Street E,,45.5060875776279,-73.55361568537528
53,Montreal,,CA,4177 Boulevard Saint-Laurent,,45.51814,-73.581503
54,Montreal,,CA,1224 Rue Drummond,,45.497994,-73.573128
55,Montreal,,CA,408 Rue Saint-François-Xavier,,45.50273,-73.5557
56,Montreal,,CA,545 Rue Milton,,45.5073247805376,-73.5757481897374
57,Montreal,,CA,423 Rue Saint-Claude,,45.50893,-73.55241
58,Montreal,,CA,4006 Rue Sainte-Catherine O,,45.488882667853325,-73.5845826711644
59,Montreal,,CA,407 Rue McGill,,45.50047,-73.55734
60,Montreal,,CA,224 Rue Milton,,45.51039,-73.57262
61,Montreal,,CA,444 Rue McGill,,45.500436,-73.558316
62,Montreal,,CA,4525 Avenue du Parc,,45.51731,-73.58984
63,Montreal,,CA,1096 Boulevard Saint-Laurent,,45.50838,-73.561
64,Montreal,,CA,3609 Rue St-Denis,,45.51811,-73.56943
65,Montreal,,CA,1453 Avenue Mont-Royal E,,45.53109931841519,-73.57652291717903
66,Montreal,,CA,1023 Rue Ontario E,,45.52006,-73.56322
67,Montreal,,CA,1211 Rue Bishop,,45.49601,-73.57487
68,Montreal,,CA,9 Avenue Duluth E,,45.517237,-73.57932
69,Montreal,,CA,2077 Rue Stanley,,45.50087,-73.57643
70,Montreal,,CA,426 Rue Saint-Gabriel,,45.50642,-73.55418
71,Montreal,,CA,4095 Rue Molson,,45.5421766124662,-73.5634769072506
72,Montreal,,CA,2077 Boulevard Robert-Bourassa,,45.50484,-73.572759
73,Montreal,,CA,17 Rue Notre-Dame O,,45.50587,-73.556052
74,Montreal,,CA,257 Rue Prince,,45.49756372609497,-73.55686379820928
75,Montreal,,CA,94 Rue Saint Paul E,,45.5064,-73.55293
76,Montreal,,CA,38 Rue Beaubien E,,45.5306384,-73.6080747
77,Montreal,,CA,5201 Boulevard Saint Laurent,,45.52407441775497,-73.5946929842611
78,Montreal,,CA,626 Rue Marguerite d'Youville,,45.4989262422404,-73.5543499141932
79,Montreal,,CA,190 Rue Saint-Catherine O,,45.50747533524907,-73.5656675449969
80,Montreal,,CA,1006 Boulevard Saint-Laurent,,45.5077814027869,-73.559594
81,Montreal,,CA,5322 Boulevard Saint-Laurent,,45.52453,-73.59662
82,Montreal,,CA,1434 Rue Crescent,,45.49751251005118,-73.576754
83,Montreal,,CA,273 Rue Saint Paul E,,45.5081154,-73.5523441
84,Montreal,,CA,711 Côte de la Place d'Armes,,45.50541,-73.55761
85,Montreal,,CA,1112 Boulevard de Maisonneuve E,,45.518377,-73.558126
86,Montreal,,CA,320 Rue Saint-Paul O,,45.50127,-73.55608
87,Montreal,,CA,1230 Boulevard de Maisonneuve O,,45.499511,-73.576242
88,Montreal,,CA,4631 Boulevard Saint-Laurent,,45.5212392,-73.5883014
89,Montreal,,CA,1391 Rue Saint-Jacques,,45.49303,-73.568495
90,Montreal,,CA,298 Place d'Youville,,45.50141,-73.55475
91,Montreal,,CA,200 Rue Saint-Paul Ouest,,45.50260615676877,-73.55518407260888
92,Montreal,,CA,3424 Avenue du Parc,,45.50845,-73.5721
93,Montreal,,CA,1909 Rue Saint-Catherine O,,45.492696,-73.580787
94,Montreal,,CA,6631 Boulevard Saint-Laurent,,45.5313378,-73.610497
95,Montreal,,CA,2049 Rue Peel,,45.501393,-73.575449
96,Montreal,,CA,1216 Rue Bishop,,45.49575,-73.5753
97,Montreal,,CA,1668 Rue Saint-Denis,,45.515,-73.56375
98,Montreal,,CA,275 Rue Notre-Dame O,,45.502845,-73.558353
99,Montreal,,CA,5375 Avenue du Parc,,45.52183,-73.60072
100,Montreal,,CA,4418 Rue Saint-Denis,,45.52324,-73.5819
101,Montreal,,CA,1030 Rue Cherrier,,45.52153,-73.56647
102,Montreal,,CA,74 Avenue du Mont-Royal E,,45.5208508,-73.58559293743438
103,Montreal,,CA,1241 Avenue du Mont-Royal E,,45.529291,-73.578237
104,Montreal,,CA,156 Avenue Laurier O,,45.521119,-73.594311
105,Montreal,,CA,115 Rue Rachel E,,45.519261587336665,-73.58070295798589
106,Montreal,,CA,407 Place Jacques-Cartier,,45.5079539,-73.55262223588781
107,Montreal,,CA,4542 Saint Denis Street,,45.5241886,-73.58375260000001
108,Montreal,,CA,4520 Avenue du Parc,,45.51688,-73.590151
109,Montreal,,CA,2519 Rue Notre-Dame Ouest,,45.48277,-73.5754852
110,Montreal,,CA,1050B Rue Clark,,45.5076456,-73.560384
111,Montreal,,CA,3609 Rue Saint-Denis,,45.51811,-73.56943
112,Montreal,,CA,3481 Boulevard Saint-Laurent,,45.51323,-73.57058
113,Montreal,,CA,351 Rue Saint-Paul O,,45.501197,-73.5564745926598
114,Montreal,,CA,360 Rue Saint-Jacques,,45.502323,-73.559316
115,Montreal,,CA,199 Rue Jean-Talon E,,45.5364999,-73.61646
116,Montreal,,CA,4902 Boulevard Saint-Laurent,,45.52205,-73.59123
117,Montreal,,CA,1216 Avenue Union,,45.50311,-73.56822
118,Montreal,,CA,276 Rue Sainte-Catherine O,,45.50682,-73.56614
119,Montreal,,CA,48 Rue Dante,,45.53314,-73.61323
120,Montreal,,CA,2175 Rue de la Montagne,,45.49944,-73.57786
121,Montreal,,CA,316 Avenue du Mont-Royal E,,45.52314063890032,-73.58349412679672
122,Montreal,,CA,464 Rue McGill,,45.5005534,-73.5590512
123,Montreal,,CA,630 Rue Cathcart,,45.50303,-73.56838
124,Montreal,,CA,4629 av du parc,,45.517858,-73.591312
125,Montreal,,CA,2021 Rue Saint-Denis,,45.5161779,-73.5657819
126,Montreal,,CA,4869 Avenue du Parc,,45.51888,-73.59341
127,Montreal,,CA,1579 Boulevard Saint-Laurent,,45.51097,-73.56564
128,Montreal,,CA,13 Rue Notre-Dame O,,45.5058610094765,-73.5559096025568
129,Montreal,,CA,3959 Boulevard Saint-Laurent,,45.51664,-73.57791
130,Montreal,,CA,851 Rue Rachel E,,45.52409,-73.57633
131,Montreal,,CA,1201 Boulevard de Maisonneuve E,,45.519202,-73.557836
132,Montreal,,CA,120 Rue McGill,,45.49946,-73.5558
133,Montreal,,CA,701 William St,,45.49843,-73.55785
134,Montreal,,CA,433 Rue Mayor,,45.505822,-73.569301
135,Montreal,,CA,3615 Boulevard Saint-Laurent,,45.514196,-73.5729452
136,Montreal,,CA,2027 Boulevard Saint-Laurent,,45.51174,-73.56731
137,Montreal,,CA,409 Rue McGill,,45.50053,-73.55772
138,Montreal,,CA,2407 Avenue du Mont-Royal E,,45.5384,-73.56974
139,Montreal,,CA,1080 Rue de Bleury,,45.50441,-73.5637
140,Montreal,,CA,300 Rue Ontario E,,45.514822,-73.565401
141,Montreal,,CA,15 Rue de la Commune O,,45.50499,-73.5538
142,Montreal,,CA,3962 Boulevard Saint-Laurent,,45.5166568,-73.579113
143,Montreal,,CA,370 Rue Sainte-Catherine O,,45.50561,-73.56712
144,Montreal,,CA,243 Avenue Mont-Royal O,,45.51778,-73.58888
145,Montreal,,CA,210 Rue Saint Viateur O,,45.523098,-73.601261
146,Montreal,,CA,1059 Rue Gilford,,45.5295503804062,-73.5827571103087
147,Montreal,,CA,1127 Avenue du Mont-Royal E,,45.528427,-73.57911
148,Montreal,,CA,5318 Avenue Du Parc,,45.52088,-73.59997
149,Montreal,,CA,3883 Boulevard Saint Laurent,,45.51623,-73.57725
150,Montreal,,CA,1440 Rue de la Montagne,,45.498525,-73.5764919
151,Montreal,,CA,433 Rue McGill,,45.50074,-73.55806
152,Montreal,,CA,139 Rue Saint-Paul O,,45.5037576,-73.55491567062386
153,Montreal,,CA,16 Rue Maguire,,45.52461,-73.59544
154,Montreal,,CA,1638 Rue Notre-Dame O,,45.489415,-73.567583
155,Montreal,,CA,2020 Rue Crescent,,45.49792,-73.57789
156,Montreal,,CA,3712 Boulevard Saint-Laurent,,45.51456,-73.57461
157,Montreal,,CA,1237 Rue Atateken,,45.516995,-73.5556896
158,Montreal,,CA,5064 Avenue Papineau,,45.5354763,-73.5807972
159,Montreal,,CA,20 Rue Prince Arthur,,45.51343,-73.5726
160,Montreal,,CA,1019 Avenue du Mont-Royal E,,45.527648,-73.579729
161,Montreal,,CA,1039 Rue Beaubien Est,,45.53756,-73.60205
162,Montreal,,CA,4403 Boulevard Saint-Laurent,,45.5194122950185,-73.5848534494062
163,Montreal,,CA,39 Rue Saint Paul E,,45.50617298481,-73.553588470931
164,Montreal,,CA,173 Avenue Duluth E,,45.51869,-73.57799
165,Montreal,,CA,2049 Rue Saint-Denis,,45.51642,-73.566042
166,Montreal,,CA,1450 Rue Peel,,45.50047,-73.57449
167,Montreal,,CA,1065 Côte du Beaver Hill,,45.5023943,-73.564791
168,Montreal,,CA,3991 Boulevard Saint-Laurent,,45.5167034,-73.5787906
169,Montreal,,CA,343 Rue Saint-Paul E,,45.509204489716616,-73.5518333
170,Montreal,,CA,1468 Rue Peel,,45.500541,-73.574323
171,Montreal,,CA,68 Rue de la Gauchetière O,,45.50734,-73.5603
172,Montreal,,CA,438 McGill,,45.5002799,-73.55837
173,Montreal,,CA,3706 Rue Saint-Denis,,45.51834,-73.57125
174,Montreal,,CA,740 Rue William,,45.49820816147015,-73.5576066104322
175,Montreal,,CA,1234 Mont-royal E,,45.5291117540899,-73.5779781639576
176,Montreal,,CA,1340 Saint-Catherine Street West,,45.4973876,-73.57524787359317
177,Montreal,,CA,1836 Sainte-Catherine Street West,,45.4931297,-73.57967107576893
178,Montreal,,CA,1229 Rue de la Montagne,,45.49779,-73.57424
179,Montreal,,CA,6230 Rue Saint-Hubert,,45.534836,-73.600521
180,Montreal,,CA,1609 Rue Sainte-Catherine Ouest,,45.494956,-73.57826
181,Montreal,,CA,782 Rue Wellington,,45.49668,-73.55524
182,Montreal,,CA,34 Avenue Fairmount Ouest,,45.52331,-73.59472
183,Montreal,,CA,12 Rue Rachel O,,45.5176519,-73.5818049
184,Montreal,,CA,1325 Boulevard René-Lévesque O,,45.496606,-73.572863
185,Montreal,,CA,201 Place d'Youville,,45.50241,-73.555
186,Montreal,,CA,25 Avenue Fairmount O,,45.52351,-73.594997
187,Montreal,,CA,1448 Rue Saint Mathieu,,45.49425,-73.58048
188,Montreal,,CA,2501 Rue Notre-Dame O,,45.4828859,-73.5752899
189,Montreal,,CA,30 Rue Sainte-Catherine O,,45.50930935934862,-73.56292127116336
190,Montreal,,CA,3 Rue Saint-Paul E,,45.505754,-73.553824
191,Montreal,,CA,3001 Rue Notre-Dame O,,45.48127,-73.57831
192,Montreal,,CA,777 Boulevard Robert-Bourassa,,45.49997,-73.56242
193,Montreal,,CA,1205 Avenue Bernard O,,45.52049,-73.60868
194,Montreal,,CA,1067 Rue de Bleury,,45.5043279884477,-73.5628843680024
195,Montreal,,CA,60 Rue Jean-Talon Est,,45.535631,-73.617056
196,Montreal,,CA,1255 Rue Bishop,,45.49622,-73.57531
197,Montreal,,CA,701 Côte de la Place d'Armes,,45.50541,-73.55761
198,Montreal,,CA,1155 Rue Sherbrooke O,,45.501448,-73.57731980427067
199,Montreal,,CA,142 Avenue Fairmount O,,45.522006,-73.595967
200,Montreal,,CA,1487 Rue Sainte-Catherine E,,45.52111,-73.55408
201,New York,,US,1411 2nd Ave,,40.7698275926665,-73.9576330868512
202,New York,,US,23 W 32nd St,,40.74776270790539,-73.9867793576711
203,New York,,US,60 E 65th St,,40.766742,-73.967679
204,New York,,US,174 2nd Ave,,40.730387,-73.986093
205,New York,,US,225 Park Ave S,,40.73725824850519,-73.9882252705524
206,New York,,US,35 W 13th St,,40.736287,-73.995865
207,New York,,US,17 E 31st St,,40.74625007940397,-73.98476227403484
208,New York,,US,53 W 35th St,,40.750148,-73.9863203465939
209,New York,,US,38 MacDougal St,,40.72707,-74.00283
210,New York,,US,46 Bowery St,,40.7156608,-73.9967012
211,New York,,US,1 Central Park W,,40.7691122743293,-73.9814290717583
212,New York,,US,181 Thompson St,,40.72800126711089,-74.00024274442806
213,New York,,US,15 W 27th St,,40.744427,-73.988302
214,New York,,US,205 E Houston St,,40.72221127798768,-73.98747940414935
215,New York,,US,66 S 2nd St,,40.714186,-73.965493
216,New York,,US,409 W 15th St,,40.74207,-74.00565
217,New York,,US,156 Court St,,40.688684,-73.993137
218,New York,,US,43 E 28th St,,40.74364,-73.98456
219,New York,,US,115 Allen St,,40.719584,-73.990486
220,New York,,US,749 9th Ave,,40.763924,-73.988883
221,New York,,US,129 Mulberry St,,40.71832,-73.99794
222,New York,,US,507 E 6th St,,40.7253574,-73.9833014
223,New York,,US,235 Sullivan St,,40.729771,-73.999392
224,New York,,US,348 Wythe Ave,,40.714181240175115,-73.96532809508915
225,New York,,US,9 Stanton St,,40.7225353,-73.992492
226,New York,,US,128 First Ave,,40.727343847368914,-73.98528661101456
227,New York,,US,34 W 35th St,,40.74964,-73.98582
228,New York,,US,701 9th Ave,,40.76247,-73.9901
229,New York,,US,38 W 39th St,,40.752167,-73.98422161374535
230,New York,,US,593 Lorimer St,,40.71462413989243,-73.9497399
231,New York,,US,119 Saint Marks Pl,,40.727066,-73.983505
232,New York,,US,79-81 Macdougal St,,40.7288561,-74.00177181257429
233,New York,,US,181 Bleecker St,,40.72908,-74.00078
234,New York,,US,129 MacDougal St,,40.73069,-74.00015
235,New York,,US,413 8th Ave,,40.7502059936523,-73.9953231811523
236,New York,,US,W 53rd Street And 6th Ave,,40.761861,-73.979306
237,New York,,US,319 5th Ave,,40.747118,-73.985056
238,New York,,US,88 University Pl,,40.73369,-73.99316
239,New York,,US,90 Chambers St,,40.714477664263505,-74.0074549
240,New York,,US,4 W 22nd St,,40.741019,-73.990692
241,New York,,US,171 Spring St,,40.7249227818105,-74.00215536627918
242,New York,,US,4 Charles St,,40.73513,-74.00065
243,New York,,US,133 Wythe Ave,,40.719747,-73.959993
244,New York,,US,40 Kenmare St,,40.7206118,-73.99520866651855
245,New York,,US,82 Reade St,,40.715498,-74.007178
246,New York,,US,103 Bowery,,40.7175581,-73.99498
247,New York,,US,241 S 4th St,,40.7104,-73.95854
248,New York,,US,75 9th Ave,,40.7427413905213,-74.0060118057704
249,New York,,US,One Vanderbilt Ave,,40.75284533722524,-73.97848111104443
250,New York,,US,364 W 46th St,,40.76064,-73.99023
251,New York,,US,22 East 49th St,,40.7573689002,-73.9764462233
252,New York,,US,32 Spring St,,40.7215934960083,-73.9955956044561
253,New York,,US,45 W 27th St,,40.74514,-73.9900399
254,New York,,US,214 E 49th St,,40.75481,-73.97059
255,New York,,US,343 W 14th St,,40.7408,-74.00429
256,New York,,US,125 W 44th St,,40.75673,-73.9843
258,New York,,US,10 Columbus Cir,,40.768494,-73.983072
259,New York,,US,21 W 8th St,,40.73293764919451,-73.99758608256435
260,New York,,US,391 2nd Ave,,40.73767,-73.98128
261,New York,,US,96 Bowery,,40.7176299520983,-73.9954301342368
262,New York,,US,9 E 1st St,,40.72457207599233,-73.99183956085875
263,New York,,US,21 Ann St,,40.71087,-74.00753
264,New York,,US,133 5th Ave,,40.67857,-73.97885
265,New York,,US,120 Rivington St,,40.719856452169005,-73.98723927387086
266,New York,,US,304 W 4th St,,40.737054,-74.00384677146978
267,New York,,US,23 E 40th St,,40.75145573088978,-73.97965075275545
268,New York,,US,21 Mott St,,40.71441,-73.99902
269,New York,,US,179 E Houston St,,40.722589,-73.9882828294139
270,New York,,US,114 Macdougal St,,40.72969,-74.000629
271,New York,,US,88 Wall St,,40.705286,-74.007803
272,New York,,US,1285 6th Ave,,40.761091681735635,-73.9801313166685
273,New York,,US,432 Union Ave,,40.71338,-73.95136
274,New York,,US,31-05 34th St,,40.762936342378225,-73.92116617379394
275,New York,,US,190 Avenue B,,40.727996,-73.979324
276,New York,,US,231 Prospect Park W,,40.6598242,-73.980508
277,New York,,US,159 Canal St,,40.716613,-73.996619
278,New York,,US,251 W 26th St,,40.747241,-73.996441
279,New York,,US,604 10th Ave,,40.760506289326,-73.994564488901
280,New York,,US,144 2nd Ave,,40.729025634333766,-73.98712
281,New York,,US,309 E 5th St,,40.726746,-73.988325
282,New York,,US,370 W 51st St,,40.76388,-73.98821
283,New York,,US,1000 Fifth Ave,,40.779449,-73.963245
284,New York,,US,46-18 Vernon Blvd,,40.7463115904971,-73.95305585828432
285,New York,,US,321 Starr St,,40.70788411187043,-73.92058168413449
286,New York,,US,43-11 28th Ave,,40.76433,-73.91072
287,New York,,US,2337 1st Ave,,40.79849,-73.93382
288,New York,,US,160 8th Ave,,40.742041,-74.000467
289,New York,,US,186 Ave B,,40.727859,-73.97934
290,New York,,US,379 Grand St,,40.716337,-73.988577
291,New York,,US,1486 2nd Ave,,40.77219299003591,-73.95561517222123
292,New York,,US,93 Bowery St,,40.7170795322745,-73.9952574670315
293,New York,,US,375 S End Ave,,40.7112473,-74.0176642
294,New York,,US,64 Bayard St,,40.7155758,-73.9979585
295,New York,,US,57 Front St,,40.70275,-73.99127
296,New York,,US,79 Orchard St,,40.7177673,-73.990589
297,New York,,US,157 Bleecker St,,40.7287,-73.99971
298,New York,,US,111 Avenue A,,40.7262,-73.9836
299,New York,,US,420 Hudson St,,40.7303076612002,-74.0068030357639
300,New York,,US,214 E 52nd St,,40.75667,-73.969168
301,New York,,US,122 Ludlow St,,40.7196298,-73.988366
302,New York,,US,615 Manhattan Ave,,40.7233949,-73.950856
303,New York,,US,177 Henry St,,40.7136187,-73.9888503
304,New York,,US,155 5th Ave,,40.67791,-73.97929
305,New York,,US,206 Sullivan St,,40.729091,-74.000327
306,New York,,US,30 Water St,,40.7032766048948,-74.01101979176725
307,New York,,US,54 Stone St,,40.70429102137911,-74.01006057997135
308,New York,,US,6 Platt St,,40.707324,-74.006407
309,New York,,US,234 E 4th St,,40.723315,-73.983139
310,New York,,US,126 W 18th St,,40.74023348892918,-73.9962661
311,New York,,US,26 S William St,,40.7046213003984,-74.0107793876969
312,New York,,US,15 Gold St,,40.7078815,-74.00712879999999
313,New York,,US,28 Pell St,,40.71495,-73.99841
314,New York,,US,266 Malcolm X Blvd,,40.68391,-73.929419
315,New York,,US,356 W 44th St,,40.7593269348145,-73.9913101196289
316,New York,,US,141 Broadway,,40.710484,-73.963408
317,New York,,US,788 Franklin Ave,,40.6717311853659,-73.957878
318,New York,,US,122 1st Ave,,40.72714681219886,-73.98541890324336
319,New York,,US,820 Washington St,,40.7396039,-74.00847657515718
320,New York,,US,510 Madison Ave,,40.75972,-73.97472
321,New York,,US,138 5th Ave,,40.6786672454389,-73.9791200818081
322,New York,,US,805 3rd Ave,,40.75551830794478,-73.97041881177492
323,New York,,US,675 9th Ave,,40.76138,-73.99071
324,New York,,US,570 Hudson St,,40.735702,-74.005761
325,New York,,US,702 Grand St,,40.7113172,-73.9446243
326,New York,,US,30 West 46th St,,40.756473,-73.980563
327,New York,,US,280 5th Ave,,40.674397988541656,-73.98231996653998
328,New York,,US,37 W 32nd St,,40.74811,-73.9872
329,New York,,US,15 Stone St,,40.70421,-74.01208
330,New York,,US,651 Manhattan Ave,,40.7243479163883,-73.9512226101037
331,New York,,US,181 Wyckoff Ave,,40.70318,-73.91701
332,New York,,US,637 Driggs Ave,,40.71505,-73.958365
333,New York,,US,522 6th Ave,,40.66518210863434,-73.98653954110445
334,New York,,US,185 Orchard St,,40.722071,-73.98847
335,New York,,US,156 W 38th St,,40.75314,-73.98814
336,New York,,US,174 Bleecker St,,40.7287707,-74.0008161
337,New York,,US,23RD Street And Madison Ave,,40.7409,-73.98796
338,New York,,US,29A Clinton St,,40.720422,-73.984525
339,New York,,US,115 E 18th St,,40.7368831,-73.98764
340,New York,,US,14 B Orchard St,,40.71506,-73.9916
341,New York,,US,268 Clinton St,,40.68781,-73.99576
342,New York,,US,42 E Broadway,,40.7137,-73.99598
343,New York,,US,552 Court St,,40.67499,-73.99961
344,New York,,US,45-07 Ditmars Blvd,,40.77079605926445,-73.9027408
346,New York,,US,10-50 44th Dr,,40.74832507137695,-73.9499416
347,New York,,US,284 3rd Ave,,40.6773587963142,-73.9861984489446
348,New York,,US,13 St Marks Pl,,40.72939696325248,-73.98892566258719
350,New York,,US,1123 1st Ave,,40.76128,-73.96099
351,New York,,US,11 Mott St,,40.7140555,-73.9988387116394
352,New York,,US,41 W 24th St,,40.74332767519521,-73.9912032
353,New York,,US,95 Allen St,,40.71876,-73.991026
354,New York,,US,85 Broadway,,40.71069,-73.96559
355,New York,,US,17 E 48th St,,40.75703,-73.97692
356,New York,,US,7214 3rd Ave,,40.633181,-74.027351
357,New York,,US,714 Seventh Ave at W 48th St,,40.7597339,-73.9846097
358,New York,,US,712 3rd Ave,,40.75261,-73.97342
359,New York,,US,1031 Flushing Ave,,40.7039938,-73.9310911
360,New York,,US,251 West 50th St,,40.762227,-73.9856178382696
361,New York,,US,378 Park Ave S,,40.742666939835374,-73.98484186646938
362,New York,,US,124 Rivington St,,40.7196975497428,-73.9873982202378
363,New York,,US,236 W 56th St,,40.76553,-73.98274
364,New York,,US,60 E 54th St,,40.75998,-73.97313
365,New York,,US,311 Church St,,40.719623,-74.003904
366,New York,,US,202 Mott St,,40.721377,-73.995389
367,New York,,US,260 W 40th St,,40.75558,-73.99012
368,New York,,US,81 Hoyt St,,40.6880003,-73.9866846895666
369,New York,,US,31 Cornelia St,,40.73136,-74.00253
370,New York,,US,485 7th Ave,,40.75245723977984,-73.98936677488305
371,New York,,US,116 Stanton St,,40.721196,-73.987118
372,New York,,US,226 3rd Ave,,40.736601,-73.985085
373,New York,,US,17 E 32nd St,,40.746873,-73.984392
374,New York,,US,301 S End Ave,,40.71031141285253,-74.01658239999999
375,New York,,US,294 3rd Ave,,40.7386178790617,-73.9834206895483
376,New York,,US,1 Hanover Sq,,40.704512,-74.009834
377,New York,,US,100 E 19th St,,40.7375,-73.98782
378,New York,,US,204 E 10th St,,40.72951,-73.98643
379,New York,,US,538 Madison Ave,,40.76075,-73.97379
380,New York,,US,28 W 32nd St,,40.7475125111924,-73.9867554408843
381,New York,,US,319 Bowery,,40.72535,-73.99193
382,New York,,US,371 W 34th St,,40.7534700430117,-73.99595067259492
383,New York,,US,351 E 12th St,,40.730369942268375,-73.9837222575225
384,New York,,US,550 3rd Ave,,40.74744,-73.97728
385,New York,,US,129 W 56th St,,40.76435,-73.97904
386,New York,,US,486 Halsey St,,40.6834345006833,-73.9346118563989
387,New York,,US,16 E 46th St,,40.7555,-73.97802
388,New York,,US,127 Macdougal St,,40.73063650237976,-74.0000907846602
389,New York,,US,129 W 52nd St,,40.76189587672743,-73.9806749
390,New York,,US,488 9th Ave,,40.755403,-73.994516
391,New York,,US,19 Wyckoff Ave,,40.70683,-73.9228
392,New York,,US,15 Cliff St,,40.708426,-74.005657
393,New York,,US,321 9th St,,40.6690414829378,-73.98545571626407
394,New York,,US,2 W 32nd St,,40.747266,-73.9861784
395,New York,,US,38-01 31st St,,40.753598566900095,-73.93190439177181
396,New York,,US,125 W 55th St,,40.763541894630784,-73.97902511983438
397,New York,,US,146 Metropolitan Ave,,40.715909,-73.962252
398,New York,,US,413 Graham Ave,,40.7172335,-73.94504
399,New York,,US,240 E 58th St,,40.760074,-73.965574
400,New York,,US,30 Hudson St,,40.71667,-74.00899
401,New York,,US,77 Worth St,,40.71694,-74.0057
402,New York,,US,146 Essex St,,40.720434786101286,-73.98686057623863
403,New York,,US,31 St Marks Pl,,40.72904325062745,-73.9882174
404,New York,,US,14 Bedford Ave,,40.7238117,-73.95152088549953
405,New York,,US,137 Eldridge St,,40.719135,-73.991758
406,New York,,US,37 W 17th St,,40.738851870947,-73.9941236398979
407,New York,,US,362 W 53rd St,,40.76496,-73.98721
408,New York,,US,231 Mott St,,40.722647,-73.995246
409,New York,,US,Chelsea Piers Pier 61,,40.7475765509369,-74.00929588716517
410,New York,,US,16 Mott St,,40.71422,-73.99864
411,New York,,US,72 Henry St,,40.6987126,-73.99263839731027
412,New York,,US,131 First Ave,,40.72756,-73.98555
413,New York,,US,208 1st Ave,,40.73028887013061,-73.9830423
414,New York,,US,69 Bayard St,,40.71549965706906,-73.99828502515052
415,New York,,US,132 W 47th St,,40.758413,-73.983292
416,New York,,US,83 Maiden Ln,,40.70745,-74.00748
417,New York,,US,40 Broad St,,40.70594,-74.01154
418,New York,,US,445 Albee Sq W,,40.69076075086799,-73.98305726378
419,New York,,US,39 W 46th St,,40.756899,-73.980507
420,New York,,US,174 Mulberry St,,40.7200188460948,-73.9969412164592
421,New York,,US,26 Eldridge St,,40.715117,-73.9933339
422,New York,,US,35-01 36th St,,40.755953,-73.924415
423,New York,,US,119 South St,,40.70732,-74.00159
424,New York,,US,53 Water St,,40.70343572990792,-73.99241567954792
425,New York,,US,190 Orchard St,,40.72213,-73.988011
426,New York,,US,307 Amsterdam Ave,,40.780049,-73.980209
427,New York,,US,71 Clinton St,,40.71931,-73.9851608
428,New York,,US,891 1st Ave,,40.754163762317674,-73.9662617
429,New York,,US,438 3rd Ave,,40.743553,-73.980026
430,New York,,US,43 Carmine St,,40.73007,-74.00366
431,New York,,US,245 W 38th St,,40.75427,-73.9903099
432,New York,,US,90-92 Gansevoort St,,40.7392597584612,-74.0088130692187
433,New York,,US,289 Bleecker St,,40.732184555517,-74.0032725
434,New York,,US,110 Rivington St,,40.720079,-73.987785
435,Tokyo,,JP,八重洲1-6-14,,35.681375,139.770603
436,Tokyo,,JP,銀座8-7-6,,35.6685097691225,139.761222451596
437,Tokyo,,JP,丸の内1-9-1,,35.680068,139.76781
438,Tokyo,,JP,銀座4-10-3,,35.670699,139.767429
439,Tokyo,,JP,港区赤坂,,35.674704,139.735364
440,Tokyo,,JP,外神田3-11-6,,35.700808,139.770676
441,Tokyo,,JP,日本橋室町2-1-1,,35.6870716988793,139.77308716625
442,Tokyo,,JP,南青山2-6-15,,35.671529,139.722034
443,Tokyo,,JP,神田練塀町67,,35.700801,139.774836
444,Tokyo,,JP,銀座2-6-12,,35.673274,139.766543
445,Tokyo,,JP,築地3-11-9,,35.6675715648913,139.772446538519
446,Tokyo,,JP,外神田1丁目8-14,,35.6991446091511,139.769706884314
447,Tokyo,,JP,麻布十番2-8-10,,35.655362,139.734572
448,Tokyo,,JP,日本橋室町1-11-15,,35.6854024141766,139.775257246896
449,Tokyo,,JP,永田町2-14-3,,35.677974,139.737277
450,Tokyo,,JP,築地4-11-9,,35.665917,139.770608
451,Tokyo,,JP,神田平河町4,,35.6984567962002,139.775853614179
452,Tokyo,,JP,外神田1-15-18,,35.697687,139.771555
453,Tokyo,,JP,新橋2-8-8,,35.6671406436757,139.757028417149
454,Tokyo,,JP,銀座5-14-14,,35.668668,139.766929
455,Tokyo,,JP,銀座5-2-1,,35.6724806,139.7629119
456,Tokyo,,JP,外神田3-8-17,,35.70203,139.7706244
457,Tokyo,,JP,銀座6-4-17,,35.671482,139.761507
458,Tokyo,,JP,銀座3-14-13,,35.6699644,139.7691783
459,Tokyo,,JP,西麻布4-1-15,,35.6594639291003,139.72309243524
460,Tokyo,,JP,銀座7-2-2,,35.6703869811431,139.759601
461,Tokyo,,JP,神南1-22-7,,35.661131,139.700987
462,Tokyo,,JP,日本橋室町4-2-3,,35.689582,139.771157
463,Tokyo,,JP,神宮前4-8-5,,35.667988,139.711531
464,Tokyo,,JP,雷門2-17-10,,35.7107668366947,139.796006621367
465,Tokyo,,JP,芝公園4-4-13,,35.6575980632418,139.745124255345
466,Tokyo,,JP,元麻布3丁目10-1,,35.6574127379978,139.732225355827
467,Tokyo,,JP,銀座2-2-14,,35.674371,139.765366
468,Tokyo,,JP,新宿3-32-2,,35.69322,139.701468
470,Tokyo,,JP,銀座5-8-5,,35.670658,139.765263
471,Tokyo,,JP,丸の内2-7-2,,35.6798409,139.7650921
472,Tokyo,,JP,築地2-12-6,,35.668022,139.771975
473,Tokyo,,JP,銀座8-10-8,,35.667536,139.761953
474,Tokyo,,JP,歌舞伎町1-26-3,,35.69493,139.700426
475,Tokyo,,JP,六本木4-9-11,,35.663788,139.73227
476,Tokyo,,JP,虎ノ門4-1-28,,35.666287,139.744055
477,Tokyo,,JP,丸の内2-7-3,,35.678457,139.765086
478,Tokyo,,JP,日本橋人形町2-15-17,,35.6846647214797,139.785671116364
479,Tokyo,,JP,銀座1- 8-19,,35.674285,139.768552
480,Tokyo,,JP,代々木2-14-3,,35.6868279,139.6966516
481,Tokyo,,JP,新橋1-5-5,,35.6676700077843,139.760062822033
482,Tokyo,,JP,新宿3丁目30-11,,35.6911287349284,139.703586147396
483,Tokyo,,JP,神田花岡町1-1,,35.69877,139.774854
484,Tokyo,,JP,虎ノ門1-23-4,,35.6668078059161,139.749754384679
485,Tokyo,,JP,南大塚2-34-4,,35.72868,139.730341
486,Tokyo,,JP,歌舞伎町1-17-10,,35.694412,139.701537
487,Tokyo,,JP,銀座7-3-13,,35.670136,139.760157
488,Tokyo,,JP,浅草1-1-16,,35.7118797302246,139.79670715332
489,Tokyo,,JP,神楽坂5丁目37,,35.7012496695587,139.739410479443
490,Tokyo,,JP,西浅草3-1-12,,35.7139949316521,139.792136328246
491,Tokyo,,JP,寿4-7-7 グリーンキャピタル浅草 1F,,35.7087996676341,139.791586306951
492,Tokyo,,JP,銀座4-5-7,,35.6717557,139.7651673
493,Tokyo,,JP,宇田川町13-7,,35.660989,139.69871
495,Tokyo,,JP,浅草1-20-10,,35.711847,139.795839
496,Tokyo,,JP,宇田川町21-1,,35.660236,139.700514
497,Tokyo,,JP,西新宿1-3-1,,35.6933694670044,139.698855
498,Tokyo,,JP,外神田1-15-8,,35.698088,139.772142
499,Tokyo,,JP,新橋3-18-3,,35.6651230997705,139.757295142883
500,Tokyo,,JP,外神田1-1-10,,35.697791562979,139.770668077207
501,Tokyo,,JP,新橋2-15-13,,35.666431,139.756036
502,Tokyo,,JP,浅草1-26-5,,35.712436,139.793646
503,Tokyo,,JP,神宮前3-25-7,,35.6711780398366,139.707956580587
504,Tokyo,,JP,銀座4-2-15,,35.672616,139.764021
505,Tokyo,,JP,六本木4-5-8,,35.664558,139.732639
506,Tokyo,,JP,銀座7-9-20,,35.669202,139.763158
507,Tokyo,,JP,神宮前3-20-1,,35.6705928380895,139.708339349701
508,Tokyo,,JP,銀座6-4-12,,35.671277,139.761421
510,Tokyo,,JP,銀座2-11-2,,35.672637,139.769331
511,Tokyo,,JP,銀座8-2-13,,35.6695803,139.759328
512,Tokyo,,JP,神田小川町3-16-1,,35.6967443,139.760153
513,Tokyo,,JP,銀座8-7-19,,35.6685368794993,139.760988442548
514,Tokyo,,JP,千駄ヶ谷5-24-55,,35.688329,139.700503
515,Tokyo,,JP,京橋2-5-2,,35.676444,139.770427
516,Tokyo,,JP,上野7-1-1,,35.712421,139.775218
517,Tokyo,,JP,雷門2-16-9,,35.710801,139.794985
518,Tokyo,,JP,赤坂3-10-20,,35.676426,139.7365388
519,Tokyo,,JP,渋谷3-18-10,,35.656943,139.70397
520,Tokyo,,JP,外神田1-2-3,,35.698459,139.770606
521,Tokyo,,JP,銀座5-5-13,,35.6711134147684,139.763060245893
522,Tokyo,,JP,東麻布1-24-6,,35.655649,139.744368
523,Tokyo,,JP,銀座3-9-4,,35.671873,139.768251
524,Tokyo,,JP,雷門2-1-15,,35.71034,139.798024
525,Tokyo,,JP,浅草1-7-5,,35.711606,139.793702
527,Tokyo,,JP,神宮前6-5-6,,35.667882,139.705215
528,Tokyo,,JP,銀座3-7-3,,35.672292,139.767615
529,Tokyo,,JP,丸の内2丁目4-1,,35.681097585635,139.763630072857
530,Tokyo,,JP,円山町23-7,,35.656747,139.694173
531,Tokyo,,JP,赤坂1-12-32,,35.680743,139.771583
532,Tokyo,,JP,銀座4-12-15,,35.6694325819807,139.76782691274
533,Tokyo,,JP,六本木4-11-11,,35.664171,139.731482
534,Tokyo,,JP,宇田川町31-2,,35.661307,139.6975
535,Tokyo,,JP,六本木3-4-2,,35.665048,139.736648
536,Tokyo,,JP,恵比寿1-1-7,,35.648317,139.710867
537,Tokyo,,JP,道玄坂1-12-3,,35.658344,139.698986
538,Tokyo,,JP,芝3-3-14,,35.6528828084847,139.747472140723
539,Tokyo,,JP,丸の内1-4-1,,35.684438,139.764496
540,Tokyo,,JP,赤坂2-18-8,,35.6689060943716,139.73981786039
541,Tokyo,,JP,築地4-10-14,,35.6654375423276,139.769986162955
542,Tokyo,,JP,六本木4-9-4,,35.663626,139.732648
543,Tokyo,,JP,銀座6-12-17,,35.669431,139.76485
544,Tokyo,,JP,千駄ヶ谷5-24-2,,35.687701,139.702121
545,Tokyo,,JP,西麻布2-24-9,,35.660939,139.722114
546,Tokyo,,JP,西麻布2-26-4,,35.6602104128861,139.719400496102
547,Tokyo,,JP,桜丘町17-10,,35.6562822526991,139.700982063529
548,Tokyo,,JP,外神田3-7-13,,35.70226,139.770475
549,Tokyo,,JP,銀座8-10-15,,35.667975,139.762328
550,Tokyo,,JP,浅草1丁目3-6,,35.7112256125179,139.795545595344
551,Tokyo,,JP,赤坂2-15-15,,35.67164,139.73797
552,Tokyo,,JP,谷中6-1-29,,35.7211571604165,139.770685078778
553,Tokyo,,JP,銀座2-5-19,,35.674183,139.766931
554,Tokyo,,JP,東新橋1-9-1,,35.66285,139.760968
555,Tokyo,,JP,両国2丁目17-6,,35.6946898878885,139.792443749625
556,Tokyo,,JP,丸の内1-1-1,,35.684564,139.761059
557,Tokyo,,JP,上野公園4,,35.7154769,139.7740551
558,Tokyo,,JP,六本木7-17-24,,35.662770641341,139.728277
559,Tokyo,,JP,神楽坂4丁目3-7,,35.7017737955929,139.740090677618
560,Tokyo,,JP,有楽町1-12-1,,35.675261,139.762227
561,Tokyo,,JP,芝公園4-2-8,,35.6585580781371,139.745503664017
562,Tokyo,,JP,八丁堀2-19-11,,35.676031,139.775878
563,Tokyo,,JP,六本木6-12-2,,35.658773,139.729414
564,Tokyo,,JP,歌舞伎町1-1-10,,35.693764,139.704534
565,Tokyo,,JP,駒形1-7-12,,35.7076176725718,139.795090224833
566,Tokyo,,JP,新橋2-16-1,,35.666315,139.757003
567,Tokyo,,JP,丸の内1-5-1,,35.682627,139.764119
568,Tokyo,,JP,銀座6-13-6,,35.6689450990182,139.76498794801
570,Tokyo,,JP,銀座6-8-7,,35.6700740789065,139.762756146572
571,Tokyo,,JP,西新宿7-4-5,,35.696047764812,139.698399721994
572,Tokyo,,JP,南青山4-2-6,,35.665927,139.720409
573,Tokyo,,JP,愛宕2-3-1,,35.6635055541992,139.748962402344
574,Tokyo,,JP,赤坂5-3-1,,35.672821,139.736542
575,Tokyo,,JP,浅草2-7-13,,35.714631,139.795172
576,Tokyo,,JP,銀座3-6-1,,35.671936,139.766265
577,Tokyo,,JP,有楽町1-2-2,,35.67347,139.760458
578,Tokyo,,JP,上野公園9-83,,35.71651,139.771327
579,Tokyo,,JP,赤坂3-5-2,,35.673758,139.738574
580,Tokyo,,JP,,,35.7040036063003,139.773386654151
581,Tokyo,,JP,赤坂2-9-2,,35.671366,139.741
582,Tokyo,,JP,上野4-10-17,,35.710444,139.774407
583,Tokyo,,JP,大手町1-6-1,,35.6862532732362,139.765688858831
584,Tokyo,,JP,銀座5丁目15-8,,35.6680969236424,139.767319173709
585,Tokyo,,JP,外神田1-4-11,,35.7009506225586,139.769607543945
586,Tokyo,,JP,丸の内1-8-3,,35.6825510402671,139.769343851827
587,Tokyo,,JP,銀座2-4-6,,35.6739889,139.766406
588,Tokyo,,JP,麹町2-5-2,,35.683449,139.740612
589,Tokyo,,JP,銀座1-6-6,,35.674538,139.767723
590,Tokyo,,JP,日本橋本町1-4-3,,35.686328,139.775701
591,Tokyo,,JP,神宮前6-12-5,,35.666249,139.704656
592,Tokyo,,JP,赤坂6丁目13-8,,35.6699205487001,139.734084971381
593,Tokyo,,JP,西麻布1-13-11,,35.6602253,139.7235128
594,Tokyo,,JP,歌舞伎町2-23-1,,35.695134,139.704112
595,Tokyo,,JP,歌舞伎町2-46-8,,35.697847,139.700727
596,Tokyo,,JP,日本橋室町2-3-1 コレド室町2　1F,,35.6870105462973,139.774491531768
597,Tokyo,,JP,新宿3-32-5,,35.690197,139.703937
598,Tokyo,,JP,芝公園2-3-6,,35.6568491843983,139.752714753396
599,Tokyo,,JP,押上1-1-2,,35.710064,139.810701
600,Tokyo,,JP,西新宿1-12,,35.6899698,139.6972898
601,Tokyo,,JP,銀座6-4-14,,35.6711677,139.7612247
602,Tokyo,,JP,外神田1-11-4,,35.699566,139.77073
603,Tokyo,,JP,外神田4-4-3,,35.701315,139.771816
604,Tokyo,,JP,神宮前1-13-21,,35.669765,139.703557
605,Tokyo,,JP,八丁堀2-13-2,,35.6772053394806,139.776279330254
606,Tokyo,,JP,銀座6-5-1,,35.671365,139.762313
607,Tokyo,,JP,銀座5-5-7,,35.6712995174847,139.763526865852
608,Tokyo,,JP,日比谷公園1,,35.6737768717852,139.755896995259
609,Tokyo,,JP,銀座2-7-15,,35.6730207722965,139.767330173541
610,Tokyo,,JP,京橋2-1-3,,35.6762415,139.7706974
612,Tokyo,,JP,渋谷 2-19-17,,35.659644,139.704086
613,Tokyo,,JP,浅草1-36-7,,35.712741,139.796777
614,Tokyo,,JP,赤坂2-2-21,,35.6580696105957,139.751403808594
615,Tokyo,,JP,銀座7-2-20,,35.670931,139.760296
616,Tokyo,,JP,銀座3-11-10,,35.6704100265969,139.768421209056
617,Tokyo,,JP,南青山5-1-2,,35.66486,139.712836
618,Tokyo,,JP,西麻布1丁目4-36,,35.6620214550768,139.724420831668
619,Tokyo,,JP,銀座2-3-4,,35.6720886230469,139.770599365234
620,Tokyo,,JP,銀座5-9-5,,35.670291,139.765621
621,Tokyo,,JP,六本木5-1-5,,35.66272,139.733026
622,Tokyo,,JP,新宿3-34-11,,35.69053,139.7027647
623,Tokyo,,JP,築地6-26-6,,35.664606,139.771138
624,Tokyo,,JP,六本木6-10-1,,35.660112,139.729383
625,Tokyo,,JP,銀座6-3-8,,35.671341,139.761141
626,Tokyo,,JP,築地4-12-6,,35.66541,139.771147
627,Tokyo,,JP,銀座6丁目6-5,,35.6709073100082,139.762437528966
628,Tokyo,,JP,銀座5-7-19,,35.671369,139.764536
629,Tokyo,,JP,日本橋室町2-3-1,,35.6869163707732,139.774867361692
630,Tokyo,,JP,銀座1-2-1,,35.675597,139.76653
631,Tokyo,,JP,西浅草2-2-2,,35.71195,139.790924
632,Tokyo,,JP,有楽町1-2-9,,35.672897308348,139.760359291801
633,Tokyo,,JP,東新橋1-6-3,,35.6641954,139.7605401
634,Tokyo,,JP,浅草1-6-1,,35.711332,139.793942
635,Tokyo,,JP,西新宿1-2-12,,35.6931863073738,139.699341000702
636,Tokyo,,JP,渋谷2-21-1,,35.659051,139.703674
637,Tokyo,,JP,六本木6-11-16,,35.658151,139.732005
638,Tokyo,,JP,南青山5-7-28,,35.662933,139.7125859
639,Tokyo,,JP,外神田3-15-6,,35.701864,139.771395
640,Tokyo,,JP,神田神保町1-5,,35.6955194,139.7591559
641,Tokyo,,JP,六本木3-13-3,,35.6629780149479,139.734340530744
642,Tokyo,,JP,神田佐久間町2-18-5,,35.69859,139.775833
643,Tokyo,,JP,麻布十番1-6-4,,35.6565253174301,139.734311651084
644,Tokyo,,JP,鍛冶町2-10-9,,35.693846664578,139.77234659758
645,Tokyo,,JP,銀座4-6-16,,35.671355,139.765435
646,Paris,,FR,34 rue Montmartre,,48.8645157999652,2.34540185646608
647,Paris,,FR,3 carrefour de l'Odéon,,48.85202,2.3388
648,Paris,,FR,226 rue de Rivoli,,48.865092,2.328464
649,Paris,,FR,31 rue de la Cerisaie,,48.852569,2.364184
650,Paris,,FR,34 rue des Rosiers,,48.857498,2.35908
651,Paris,,FR,Monnaie de Paris,,48.857,2.3386999
652,Paris,,FR,5 rue du Nil,,48.867754322367,2.3477420774331
653,Paris,,FR,Place du Carrousel,,48.86206,2.334521
654,Paris,,FR,9 rue Christine,,48.85461,2.33954
655,Paris,,FR,5 rue de Montalembert,,48.8568107229545,2.32785068883627
656,Paris,,FR,2 rue Roger Verlomme,,48.8566952430158,2.36717752386277
657,Paris,,FR,80 rue de Charonne,,48.85355,2.380665
658,Paris,,FR,107 boulevard Richard Lenoir,,48.86446,2.37018
659,Paris,,FR,84 rue de Varenne,,48.855753,2.316982
660,Paris,,FR,44 rue Vieille du Temple,,48.8580235883243,2.35806396197131
661,Paris,,FR,6 rue de l'Amiral de Coligny,,48.8604,2.34055
662,Paris,,FR,106 rue Saint-Honoré,,48.8616441182389,2.34201570904084
663,Paris,,FR,29 rue Cler,,48.85743,2.30604
664,Paris,,FR,9 carrefour de l'Odeon,,48.851945700766,2.338757487651
665,Paris,,FR,27 rue Malar,,48.86018,2.30594
666,Paris,,FR,28 rue Vieille du Temple,,48.857332,2.357493
667,Paris,,FR,38 rue Monsieur le Prince,,48.848966,2.340349
668,Paris,,FR,Port des Saints Pères,,48.8583205,2.3346584
669,Paris,,FR,3 rue Geoffroy-l'Angevin,,48.860525,2.354439
670,Paris,,FR,7 rue du Faubourg Montmartre,,48.87194,2.34317
671,Paris,,FR,5 avenue Anatole France,,48.858368,2.29448028497734
672,Paris,,FR,20 avenue de New York,,48.863716,2.296757
673,Paris,,FR,50 rue Clignancourt,,48.88758,2.3479199
674,Paris,,FR,6 rue Gomboust,,48.86736,2.33298
675,Paris,,FR,5 rue Coq Héron,,48.864366,2.342079
676,Paris,,FR,20 rue Saint Benoît,,48.85469,2.3329
677,Paris,,FR,16 rue Charlemagne,,48.85432,2.35979
678,Paris,,FR,24 rue de la Tour d'Auvergne,,48.87918,2.34367
679,Paris,,FR,34 rue de Richelieu,,48.86558,2.33689
680,Paris,,FR,1 rue de la Légion d'Honneur,,48.8604072252412,2.32502393267818
681,Paris,,FR,11 rue Augereau,,48.85731,2.30205
682,Paris,,FR,6 rue Léopold Robert,,48.84096,2.3307
683,Paris,,FR,31 bd Beaumarchais,,48.8557424,2.368231
684,Paris,,FR,Avenue Gustave Eiffel,,48.8583600000432,2.29599999988013
685,Paris,,FR,51 Rue Montmorency,,48.86364,2.35289
686,Paris,,FR,55 rue Oberkampf,,48.86461,2.37233
687,Paris,,FR,46 avenue du Bosquet,,48.8560807716799,2.30452508354831
688,Paris,,FR,3 boulevard Richard Lenoir,,48.854727,2.369435
689,Paris,,FR,21 rue Marbeuf,,48.86852,2.3035
690,Paris,,FR,33 rue Lepic,,48.886,2.33428
691,Paris,,FR,15 rue Marbeuf,,48.86808,2.30295
692,Paris,,FR,45 rue de Richelieu,,48.866218,2.337011
693,Paris,,FR,3 Rue Etienne Marcel,,48.8634,2.35068
694,Paris,,FR,111 rue Réaumur,,48.8680722322197,2.34312847113928
695,Paris,,FR,14 rue Monttessuy,,48.8596099,2.2993434
696,Paris,,FR,4 rue du Roi de Sicile,,48.855682,2.360767
697,Paris,,FR,8 avenue Dutuit,,48.8661071818398,2.31645151287496
698,Paris,,FR,5 rue Lucien Sampaix,,48.871022,2.359819
699,Paris,,FR,4 rue des Grands Augustins,,48.85502,2.3412099
700,Paris,,FR,6 rue Coquillière,,48.863719,2.343711
701,Paris,,FR,75 avenue des Champs-Élysées,,48.870838,2.303188
702,Paris,,FR,2 rue de l'Université,,48.85643,2.33153
703,Paris,,FR,101 rue la Boétie,,48.871315,2.307362
704,Paris,,FR,19 rue Lucien Sampaix,,48.87213,2.36078
705,Paris,,FR,15 quai de la Tournelle,,48.8499101,2.3551019
706,Paris,,FR,16 rue des Trois Frères,,48.884476,2.341335
707,Paris,,FR,5 rue Mondétour,,48.8629559992863,2.34797019441669
708,Paris,,FR,14 rue Jean-Jacques Rousseau,,48.86246,2.34053
709,Paris,,FR,6 Rue Desaix,,48.85439,2.29505
710,Paris,,FR,9 rue Decrès,,48.83304,2.31498
711,Paris,,FR,13 rue de l'Ancienne Comédie,,48.853039868867,2.33873112110052
712,Paris,,FR,108 rue Lepic,,48.8868300540186,2.3381794989109
713,Paris,,FR,7 bis rue Geoffroy-Marie,,48.873498,2.343626
714,Paris,,FR,28 rue du Mont Thabor,,48.86617,2.32709
715,Paris,,FR,228 rue de Rivoli,,48.86516,2.32807
716,Paris,,FR,6 rue Saint-Bon,,48.8582259709568,2.35042658065285
717,Paris,,FR,19 place de la Madeleine,,48.87074,2.3239899
718,Paris,,FR,5 rue Charles François Dupuis,,48.865353,2.363151
719,Paris,,FR,12 rue de l'Amiral Roussin,,48.8453598,2.2990401
720,Paris,,FR,21 quai Saint-Michel,,48.85339,2.3453
721,Paris,,FR,22 avenue Raymond Poincaré,,48.8650573,2.2865211
722,Paris,,FR,57 passage des Panoramas,,48.87125,2.34171
723,Paris,,FR,52 rue de Saintonge,,48.862981,2.364033
724,Paris,,FR,96 rue des Martyrs,,48.884499,2.339847
725,Paris,,FR,29 rue Mazarine,,48.85467,2.33806
726,Paris,,FR,31 rue Berger,,48.861556,2.345424
727,Paris,,FR,4 rue de la Corderie,,48.8647842407227,2.36330199241638
728,Paris,,FR,93 rue de Rivoli,,48.862013,2.335925
729,Paris,,FR,9 rue des Recollets,,48.87439,2.36201
730,Paris,,FR,19 avenue de la Motte Picquet,,48.85529,2.30718
731,Paris,,FR,66 rue du Faubourg Poissonnière,,48.876133,2.348528
732,Paris,,FR,59-61 rue Saint-André des Arts,,48.8532345157095,2.33900494873524
733,Paris,,FR,1 rue de l'Odéon,,48.851586,2.33885
734,Paris,,FR,68 rue Jean-Jacques Rousseau,,48.86434,2.34405
735,Paris,,FR,4 rue de l'Exposition,,48.85827,2.30254
736,Paris,,FR,13 rue Monsigny,,48.869145,2.335391
737,Paris,,FR,27 rue Galande,,48.851109,2.347656
738,Paris,,FR,38 rue de Buci,,48.85339,2.33595
739,Paris,,FR,48 rue Laffitte,,48.874968,2.338507
740,Paris,,FR,4 rue de Monttessuy,,48.8598,2.30044
741,Paris,,FR,14 rue Boutebrie,,48.85134,2.34452
742,Paris,,FR,14 rue Molière,,48.864977,2.335903
743,Paris,,FR,6 rue Godefroy Cavaignac,,48.854577902096,2.3816630237536
744,Paris,,FR,171 bd Montparnasse,,48.8397,2.33655
745,Paris,,FR,6 rue du Nil,,48.8678119,2.3479551
746,Paris,,FR,4 rue Lamarck,,48.886483,2.344328
747,Paris,,FR,44 rue d'Assas,,48.847323186089,2.32983749359846
748,Paris,,FR,21 rue des Halles,,48.8605269,2.3459065
749,Paris,,FR,15 rue de l'Estrapade,,48.84479,2.34662
750,Paris,,FR,69 rue des Gravilliers,,48.8644791458463,2.35424064437866
751,Paris,,FR,7bis rue de Paradis,,48.874333,2.354259
752,Paris,,FR,5 rue Poissonnière,,48.86872,2.34761
753,Paris,,FR,15 rue Dauphine,,48.8555801,2.3400906
754,Paris,,FR,9 rue Amélie,,48.859058,2.30758631534532
755,Paris,,FR,90 boulevard Saint-Germain,,48.851192,2.344806
756,Paris,,FR,13 quai de Montebello,,48.85188,2.34917
757,Paris,,FR,27 rue d'Hauteville,,48.873248,2.3499957
758,Paris,,FR,20 rue du Louvre,,48.86146,2.34126
759,Paris,,FR,52 rue du Faubourg Saint-Denis,,48.87208,2.35405
760,Paris,,FR,82 quai de Jemmapes,,48.87228,2.36506
761,Paris,,FR,1 rue du Pont Neuf,,48.85915,2.34307
762,Paris,,FR,2 bd de Bonne Nouvelle,,48.869901651373,2.35228415692945
763,Paris,,FR,32 rue du Mont Thabor,,48.8663,2.3267
764,Paris,,FR,12 rue de Lanneau,,48.848422,2.346513
765,Paris,,FR,22 rue Rambuteau,,48.860994,2.354433
766,Paris,,FR,26 rue Chanoinesse,,48.8543,2.35002
767,Paris,,FR,13 rue Charonne,,48.85278,2.37435
768,Paris,,FR,74-76 rue Jean-Jacques Rousseau,,48.8645780908918,2.344691
769,Paris,,FR,3 rue Valette,,48.84787,2.34706
770,Paris,,FR,20 rue Singer,,48.856266,2.278149
771,Paris,,FR,11 rue Dupin,,48.84978,2.3254
772,Paris,,FR,29 rue Surcouf,,48.860227,2.309735
773,Paris,,FR,85 rue Lamarck,,48.890208,2.3356074
774,Paris,,FR,109 bd Haussmann,,48.87525,2.31618
775,Paris,,FR,13 rue des Petits Champs,,48.8663685,2.3383695
776,Paris,,FR,13 rue des Beaux-Arts,,48.85635,2.33524
777,Paris,,FR,60 rue Charlot,,48.86378,2.3636
778,Paris,,FR,98-100 rue saint-honoré,,48.8616340308718,2.3423022595245246
779,Paris,,FR,22 rue de Trévise,,48.873939377235,2.345441
780,Paris,,FR,79 avenue Bosquet,,48.85542,2.30539
781,Paris,,FR,44 rue du Louvre,,48.863959,2.342631
782,Paris,,FR,98 Rue Lepic,,48.887261205041,2.3370014478986
783,Paris,,FR,74 rue folie méricourt,,48.865612,2.370802
784,Paris,,FR,110 galerie de Valois,,48.865580245548,2.33890172838062
785,Paris,,FR,20 rue d'Artois,,48.873629,2.307616
786,Paris,,FR,18 rue Bourg Tibourg,,48.8574,2.35627
787,Paris,,FR,11 bis rue Sainte-Anne,,48.86604,2.3353
788,Paris,,FR,29-31 rue Saint-Louis en l'Île,,48.851702,2.356713
789,Paris,,FR,6 rue Mandar,,48.86592,2.346318
790,Paris,,FR,12 rue de Richelieu,,48.864387,2.3362552
791,Paris,,FR,1 rue Christine,,48.854343,2.340276
792,Paris,,FR,65 quai de la Tournelle,,48.85121,2.35085
793,Paris,,FR,1 Rue Perrault,,48.860305752870495,2.3412439109556535
794,Paris,,FR,121 rue Saint-Honoré,,48.8615240712704,2.34190206974745
795,Paris,,FR,28 rue de l'Exposition,,48.85705,2.30335
796,Paris,,FR,38 rue René Boulanger,,48.868423,2.361196
797,Paris,,FR,2 ave de Lowendal,,48.85309,2.3091
798,Paris,,FR,54 rue Bourgogne,,48.85628,2.317
799,Paris,,FR,114 rue Amelot,,48.8636,2.36714
800,Paris,,FR,5 rue Saint-Bernard,,48.8507634203731,2.38146599382162
801,Paris,,FR,74 bd la Tour Maubourg,,48.85609,2.30959
802,Paris,,FR,39 quai des Grands Augustins,,48.854754,2.342119
803,Paris,,FR,35 rue Saint-Louis en l'île,,48.85181,2.35655
804,Paris,,FR,114 faubourg Saint-Honoré,,48.871785,2.314472
805,Paris,,FR,320 rue Saint-Honoré,,48.86534,2.33106
806,Paris,,FR,58 rue d'Argout,,48.86611,2.34411
807,Paris,,FR,58 rue Charonne,,48.85331,2.37848
808,Paris,,FR,32 bis rue Orsel,,48.88374,2.34316
809,Paris,,FR,37 rue de la Bûcherie,,48.852658704771,2.3469621526521
810,Paris,,FR,8 rue Croix des Petits Champs,,48.86267,2.33941
811,Paris,,FR,7 rue Sauval,,48.86191642,2.34247828
812,Paris,,FR,1 rue Villedo,,48.86598,2.3366699
813,Paris,,FR,6 rue des Abesses,,48.88403,2.3391
814,Paris,,FR,61 rue Jean-Pierre Timbaud,,48.867163,2.374997
815,Paris,,FR,72 rue Didot,,48.82906,2.31693
816,Paris,,FR,28 rue Saint-Sauveur,,48.8662544519684,2.34768457710743
817,Paris,,FR,25 Rue La Bruyère,,48.8792768,2.3345899
818,Paris,,FR,172 boulevard Saint-Germain,,48.854161,2.332603
819,Paris,,FR,27 rue du Roi de Sicile,,48.85648,2.357409
820,Paris,,FR,78 rue de Charonne,,48.8534999,2.3803
821,Paris,,FR,20 rue Saint Martin,,48.85851,2.34999
822,Paris,,FR,47 rue Gay-Lussac,,48.84175,2.34349
823,Paris,,FR,42 rue Véron,,48.8853172,2.334844
824,Paris,,FR,38 rue Tournelles,,48.85555,2.36729
825,Paris,,FR,11 quai de Montebello,,48.851727,2.349427
826,Paris,,FR,10 rue Guisarde,,48.8519,2.33428
827,Paris,,FR,100 rue Rambuteau,,48.862537,2.348045
828,Paris,,FR,6 rue Thérèse,,48.8660081547723,2.33600543883608
829,Paris,,FR,59 rue Saint-Charles,,48.848798,2.28751
830,Paris,,FR,12 rue de l'Hôtel Colbert,,48.85156,2.3483299
831,Paris,,FR,Hotel de Nell Paris,,48.8732306,2.3468674
832,Paris,,FR,Parvis de la Gare Saint-Lazare,,48.876683,2.325271
833,Paris,,FR,2 rue de l'Abreuvoir,,48.887969665002,2.33965104092
834,Paris,,FR,30bis rue Bergère,,48.87259,2.34422
835,Paris,,FR,5 rue Bouchardon,,48.8698502,2.35711
836,Paris,,FR,9 rue d'Alger,,48.86543,2.32979
837,Paris,,FR,15 boulevard du Temple,,48.864068,2.365836
838,Paris,,FR,9 rue de la Bastille,,48.8538799,2.3682599
839,Paris,,FR,1 rue Commines,,48.8617491625597,2.36506368136342
840,Paris,,FR,20 rue de Monttessuy,,48.85948,2.29853
841,Paris,,FR,129 boulevard du Montparnasse,,48.8415,2.3317199
842,Paris,,FR,12 rue des Trois Frères,,48.88443,2.34129
843,Paris,,FR,133 avenue des Champs-Elysées,,48.8728,2.29698
844,Paris,,FR,3 rue Victor Massé,,48.88046,2.3402
845,Paris,,FR,6 rue Gambey,,48.8649902,2.3721399
846,Paris,,FR,9 rue de l'Eperon,,48.852558,2.340719
847,Paris,,FR,52 rue François Miron,,48.8555191281373,2.3577103595245
848,Paris,,FR,2 rue Cambon,,48.86602,2.32504
849,Paris,,FR,19 rue de Castellane,,48.872433,2.324167
850,Paris,,FR,28 place Saint Ferdinand,,48.87805,2.2883
851,Paris,,FR,56 bd de Port-Royal,,48.83768,2.34622
852,Paris,,FR,28 rue Henri Monnier,,48.8804470273044,2.33758428078072
853,Paris,,FR,26 rue de la Lune,,48.86989,2.34919
854,Paris,,FR,9 rue de Pontoise,,48.8498845,2.3520959
855,Paris,,FR,135 rue Saint Dominique,,48.85819,2.30183
856,Paris,,FR,30 rue de Mogador,,48.8756646984336,2.33133684843779
857,Paris,,FR,25 rue Jean Pierre Timbaud,,48.86545,2.36856
858,Paris,,FR,7 rue Rougemont,,48.8716531601097,2.34572584340404
859,Paris,,FR,10 rue Malar,,48.86052,2.3057
860,Paris,,FR,44 rue d'Argout,,48.86586,2.3436
861,Paris,,FR,179 rue Saint-Denis,,48.86557,2.35045
862,Paris,,FR,39 boulevard Capucines,,48.869916,2.329266
863,Paris,,FR,10 rue Lamarck,,48.88688,2.3445299
864,Paris,,FR,17 ave Franklin D Roosevelt,,48.86612,2.31006
865,Paris,,FR,18 rue Eugène Sue,,48.89111,2.34693
866,Paris,,FR,53 bis rue des Francs Bourgeois,,48.85904,2.35831
867,Paris,,FR,7 rue Antoine Vollon,,48.850565,2.376759
868,Paris,,FR,65 rue de l'Université,,48.859208,2.323421
869,Paris,,FR,20 rue Beautreillis,,48.85328,2.36409
870,Paris,,FR,9 rue Béarn,,48.857267,2.366041
871,Paris,,FR,51 rue du Temple,,48.86009,2.35457
872,London,,GB,12 Upper Saint Martin's Lane,,51.512447030091,-0.1269579217873
873,London,,GB,9 Conduit Street,,51.5127614699071,-0.14159163911048
874,London,,GB,22 Kingly Street,,51.513087,-0.139767
875,London,,GB,15-17 Broadwick Street,,51.5137076071076,-0.135128831605189
876,London,,GB,14 North Audley Street,,51.5131345,-0.1533961
877,London,,GB,66 Knightsbridge,,51.502163,-0.159966
878,London,,GB,58 Brewer Street,,51.5114108,-0.1360504
879,London,,GB,1 Kinnerton Street,,51.4993674,-0.1565204
880,London,,GB,5A Air Street,,51.5097072807539,-0.136161326657445
881,London,,GB,1 Upper James Street,,51.5123099662701,-0.137234320867947
882,London,,GB,17 Beak Street,,51.51212,-0.1384008
883,London,,GB,34 Rupert Street,,51.5111632,-0.1327159
884,London,,GB,The Basement,,51.511687,-0.134762
885,London,,GB,160 Picadilly,,51.507617,-0.141012
886,London,,GB,68 Royal Hospital Road,,51.485833,-0.161966
887,London,,GB,127 Ledbury Road,,51.516819,-0.200107
888,London,,GB,26 Ganton Street,,51.512935,-0.139414
889,London,,GB,51 Kensington Church Street,,51.50405773515,-0.192783395566043
890,London,,GB,11 Langley Street,,51.5134998914001,-0.12567396291297
891,London,,GB,27 Walham Grove,,51.4829113087309,-0.196470990454087
892,London,,GB,49 Frith Street,,51.5135765075684,-0.131750002503395
893,London,,GB,21-22 Warwick Street,,51.511617,-0.1385226
894,London,,GB,10 Berners Street,,51.5167515074354,-0.135977268218994
895,London,,GB,20 Sherwood Street,,51.5106025898049,-0.135575861793962
898,London,,GB,61 Carter Lane,,51.5131833881734,-0.10138103121642
899,London,,GB,42 Albemarle Street,,51.50842,-0.1416607
900,London,,GB,Great Russell Street,,51.518298,-0.126026
901,London,,GB,45 Lexington Street,,51.5130233764648,-0.136484995484352
902,London,,GB,1 - 5 West Street,,51.512814,-0.128013
903,London,,GB,90 Berwick Street,,51.513487,-0.135082
904,London,,GB,215 Piccadilly,,51.5095021385658,-0.135087305946757
905,London,,GB,Victory House,,51.509971,-0.137964
906,London,,GB,15 Kingly Street,,51.5123954723956,-0.138893650736518
907,London,,GB,17-18 Henrietta Street,,51.5108326561998,-0.124100585093387
908,London,,GB,16 Brewer Street,,51.5123858,-0.1341749
909,London,,GB,7 Boundary Street,,51.5245310066818,-0.076594190862934
910,London,,GB,6 Southwark Street,,51.5051451,-0.0899515
911,London,,GB,35 Maiden Lane,,51.5108207,-0.1232501
912,London,,GB,46 Lexington Street,,51.513155,-0.13614583403546
913,London,,GB,12 Archer Street,,51.5116836912991,-0.133953506589517
914,London,,GB,110 Bishopsgate,,51.516178,-0.08094
915,London,,GB,6 New Quebec Street,,51.515378341447,-0.15823586449841
916,London,,GB,4 Derry Street,,51.5012974019964,-0.191184893250465
917,London,,GB,Fifth Floor Harvey Nichols,,51.501441,-0.159432
918,London,,GB,9 Denmark Street,,51.515075713969,-0.129648385965984
919,London,,GB,36-44 Brewer Street,,51.511881,-0.135307
920,London,,GB,Barge House st,,51.5083860657884,-0.108466279762297
921,London,,GB,16 Neal's Yard,,51.5144480132327,-0.126241173962971
922,London,,GB,8 Hanway Place,,51.5171482803943,-0.13180578932657
923,London,,GB,13 Kingly Court,,51.512542,-0.1391
924,London,,GB,3 Yeoman's Row,,51.4974592155569,-0.166872303554917
925,London,,GB,26 St John Street,,51.520481,-0.101486
926,London,,GB,42 New Oxford Street,,51.5171949,-0.1260125
927,London,,GB,80 Wardour Street,,51.51333452102,-0.13376991245546
928,London,,GB,53 Lexington Street,,51.5132221949841,-0.136528484994449
929,London,,GB,4th Floor,,51.5087069889729,-0.138279327972609
930,London,,GB,Shoreditch Town Hall,,51.5270489,-0.0791196
931,London,,GB,85 Piccadilly,,51.5061568370745,-0.144324263574846
932,London,,GB,4-6 Russell Street,,51.5123176574707,-0.121569000184536
933,London,,GB,80 Neal Street,,51.514992,-0.12596
934,London,,GB,17 Bruton Street,,51.5103202323384,-0.144935268434918
935,London,,GB,2nd Floor,,51.51148449999999,-0.1254335
936,London,,GB,15-17 Blandford Street,,51.518294,-0.153047
937,London,,GB,3 Portman Mews South,,51.5146226,-0.1557135
938,London,,GB,15 Gloucester Road,,51.4987228161749,-0.183567237647306
939,London,,GB,D'Arblay House,,51.514481362499,-0.13676105637839
940,London,,GB,64 St Giles High Street,,51.51555,-0.127588
941,London,,GB,20 Old Compton Street,,51.5136346213443,-0.130298037090699
942,London,,GB,52 Haymarket,,51.5094175706263,-0.132749820495633
943,London,,GB,8-10 Pollen Street,,51.5134486407661,-0.142294155464837
944,London,,GB,18-22 Craven Road,,51.514853,-0.1772311
945,London,,GB,11 Dean Street,,51.5149474,-0.13324
946,London,,GB,5 Stable Street,,51.5363182978271,-0.125145272091882
947,London,,GB,3 Chapel Place,,51.5152854919434,-0.146885111927986
948,London,,GB,157a Commercial Street,,51.5211502,-0.075657
949,London,,GB,25 Swallow Street,,51.50968,-0.1379546
950,London,,GB,3 Leicester Street,,51.511104,-0.13113
951,London,,GB,73 St James's Street,,51.505661,-0.138903
952,London,,GB,38 Poland Street,,51.5153383,-0.1376925
953,London,,GB,63-66 St Martin's Ln,,51.5112707779066,-0.126947910714945
954,London,,GB,30-31 Peter Street,,51.512829,-0.133884
956,London,,GB,15 Berkeley Street,,51.5084914741339,-0.143449097152784
957,London,,GB,41 Buckingham Gate,,51.4987197,-0.1374994
958,London,,GB,13 Neal's Yard,,51.5144380966574,-0.126426543278564
959,London,,GB,The Old Westminster Library,,51.497381,-0.129634
960,London,,GB,37 Charlotte Street,,51.5189741386939,-0.135395835697745
961,London,,GB,70 Charlotte Street,,51.520415,-0.136485
962,London,,GB,119 Kensington Church Street,,51.5068261,-0.194781
963,London,,GB,43 Drury Lane,,51.5143394,-0.1219044
964,London,,GB,17-19 Regency Street,,51.4940143171,-0.13222007974201
965,London,,GB,122 Palace Gardens Terrace,,51.5089417,-0.1937266
966,London,,GB,The Strand,,51.5102197687511,-0.120730476398416
967,London,,GB,The Berkeley,,51.5016612,-0.1556969
968,London,,GB,68 Regent Street,,51.510171,-0.135962
969,London,,GB,1 Randolph Street,,51.5418041646628,-0.136007736926076
970,London,,GB,19 Old Park Lane,,51.5050546,-0.1500369
971,London,,GB,66 Bayswater Road,,51.511656071976,-0.17697194507093
972,London,,GB,14a Old Compton Street,,51.5137786865234,-0.130199000239372
973,London,,GB,7-8 Leigh Street,,51.526474,-0.125051
974,London,,GB,41 Broadwick Street,,51.5132248,-0.136738
975,London,,GB,54 Lamb's Conduit Street,,51.5219695,-0.1182648
976,London,,GB,11 Stoney Street,,51.5056293987386,-0.0915365713523675
977,London,,GB,66 Victoria Street,,51.49741,-0.13782
978,London,,GB,135 Wardour Street,,51.5138629586873,-0.134387051472991
979,London,,GB,North Audley Street,,51.5130980394816,-0.153270626983613
980,London,,GB,34 - 36 Old Compton Street,,51.5133623,-0.1311296
981,London,,GB,22 Charlotte Street,,51.518833,-0.134849
982,London,,GB,33 D'Arblay Street,,51.514733,-0.135406
983,London,,GB,Cromwell Building,,51.504962,-0.092963
984,London,,GB,20 Queen Street,,51.5070768887132,-0.147140606231687
985,London,,GB,5A Burlington Gardens,,51.51004817,-0.14055809
986,London,,GB,6-8 Mill Street,,51.512565,-0.142204
987,London,,GB,16 Winchester Walk,,51.5062318,-0.0913238
988,London,,GB,11 Henrietta Street,,51.5110542,-0.1236238
989,London,,GB,The Dorchester,,51.5075671902288,-0.152435302734375
990,London,,GB,34 Portman Street,,51.514873602131,-0.156574989917278
991,London,,GB,Kingly Court,,51.51241,-0.13858
992,London,,GB,93-94 Wilton Road,,51.4927,-0.14072
993,London,,GB,11 Greek Street,,51.5144277061983,-0.130957402446711
994,London,,GB,11-13 Frith Street,,51.5137171,-0.1314659
995,London,,GB,53 - 54 Brooks Mews,,51.512638,-0.146243
996,London,,GB,38 Strutton Ground,,51.4966544699782,-0.133777235475182
997,London,,GB,6 Charlwood Street,,51.49135039773,-0.13753688795203
998,London,,GB,23 Pratt Street,,51.5377635,-0.1398633
999,London,,GB,46 Broadwick Street,,51.513468865838,-0.13664590618241
1000,London,,GB,83 Southwark Street,,51.505604,-0.099671
1001,London,,GB,45 Great Marlborough Street,,51.5144372406878,-0.13853844255209
1002,London,,GB,4a Meard St,,51.5134184063764,-0.132883885733008
1003,London,,GB,County Hall,,51.501479,-0.118008
1004,London,,GB,22-25 Dean Street,,51.514277,-0.1326631
1005,London,,GB,Trafalgar Square,,51.508929,-0.128302
1006,London,,GB,18 Theberton Street,,51.5376815795898,-0.10402800142765
1007,London,,GB,10-13 Grosvenor Square,,51.512403,-0.151296
1008,London,,GB,25 Ganton Street,,51.512781,-0.139333
1009,London,,GB,25 Broadwick Street,,51.51327,-0.135566
1010,London,,GB,155 Wardour Street,,51.514301,-0.134786
1011,London,,GB,10 Seymour Place,,51.514732,-0.160959
1012,London,,GB,37 Monck Street,,51.4967482348975,-0.130618096863811
1013,London,,GB,Unit C3 Ivory House,,51.5072531,-0.0716082
1014,London,,GB,9 Marshall Street,,51.513424266119,-0.137674604592006
1015,London,,GB,15 Poland Street,,51.514775,-0.136932
1016,London,,GB,38 Lexington Street,,51.5128974914551,-0.136000007390976
1017,London,,GB,16 Henrietta Street,,51.510757,-0.124054
1018,London,,GB,11-15 Swallow Street,,51.5095274197208,-0.137853830688528
1019,London,,GB,38 Beauchamp Place,,51.49724,-0.164357
1020,London,,GB,15 Gerrard Street,,51.51178,-0.13148
1021,London,,GB,5 Macclesfield Street,,51.511991,-0.13154
1022,London,,GB,75-77 Buckingham Gate,,51.4992042,-0.1378462
1023,London,,GB,34-36 Wardour street,,51.511651,-0.132188
1024,London,,GB,8 Pall Mall,,51.5074559,-0.1321665
1025,London,,GB,50 Earlham Street,,51.5137833644188,-0.125649969207333
1026,London,,GB,1 Kensington High Street,,51.502166,-0.187171
1027,London,,GB,61 Poland Street,,51.513701,-0.136673
1028,London,,GB,18 Leinster Terrace,,51.511329946838,-0.18310297196364
1029,London,,GB,The Connaught,,51.5101556,-0.1496314
1030,London,,GB,20 Thurloe Street,,51.4943231,-0.1736183
1031,London,,GB,16-22 Great Russell Street,,51.5172302719223,-0.12909671319926
1032,London,,GB,Tower Hill,,51.5083008269638,-0.0760689389286426
1033,London,,GB,383 Kennington Lane,,51.4860611,-0.1208514
1034,London,,GB,41 Earlham Street,,51.5138810333143,-0.126240480271074
1035,London,,GB,12 Denman Street,,51.5108313039847,-0.135196111510276
1036,London,,GB,12 Jerusalem Passage,,51.5232787973028,-0.103991949209005
1037,London,,GB,1st Floor Kingly Court,,51.5123393,-0.1387341
1038,London,,GB,6 Old Court Place,,51.502856014927,-0.1909916674772
1039,London,,GB,14 Borough High Street,,51.5056258,-0.0891513
1040,London,,GB,34-35 Southampton Street,,51.5107997318556,-0.122044533491135
1041,London,,GB,9 D'Arblay Street,,51.5146869918666,-0.136290080845356
1042,London,,GB,53 Cleveland Street,,51.5205732,-0.1388012
1043,London,,GB,12 Gate Street,,51.5172487,-0.119072165950775
1044,London,,GB,60-62 Commercial Street,,51.5243208695971,-0.077134990126122
1045,London,,GB,41 Great Russell Street,,51.5178680419922,-0.126817002892494
1046,London,,GB,34 Great Queen Street,,51.51524,-0.12171
1047,London,,GB,339 Harrow Road,,51.523856,-0.20105
1048,London,,GB,26 Maddox Street,,51.5131345,-0.1422486
1049,London,,GB,6 Moor Street,,51.513418975746,-0.12975025103142
1050,London,,GB,44 Great Windmill Street,,51.5110833177023,-0.134099180155678
1051,London,,GB,43 Buckingham Palace Road,,51.497974,-0.143766
1052,London,,GB,20 Portman Square,,51.516150244144,-0.15665305008251
1053,London,,GB,55 Jermyn Street,,51.507722,-0.1390888
1054,London,,GB,58 Poland Street,,51.5138271,-0.1367278
1055,London,,GB,16-20 Chalton Street,,51.5290298461914,-0.129214003682137
1056,London,,GB,Downstairs 27A,,51.5192470995905,-0.140738025145255
1057,London,,GB,3 Denman Street,,51.5107546,-0.1343706
1058,London,,GB,89 Westminster Bridge Road,,51.4988819,-0.1127175
1059,London,,GB,9 William Street,,51.5016484290909,-0.158281609169788
1060,London,,GB,21 Berwick Street,,51.5138405,-0.1346902
1061,London,,GB,54 James Street,,51.515786,-0.150785
1062,London,,GB,124-126 Wardour Street,,51.514231,-0.134374
1063,London,,GB,129 City Road,,51.5265350341797,-0.0877109989523888
1064,London,,GB,89 Regents Park Road,,51.5416545,-0.1570446
1065,London,,GB,26 Dean Street,,51.514227,-0.132764
1066,London,,GB,106 Cromer Street,,51.5276449011142,-0.123588235886524
1067,London,,GB,24 Wardour Street,,51.5112605,-0.1318498
1068,London,,GB,80 Liverpool Road,,51.537442542029,-0.10682789450616
1069,London,,GB,106-110 Wardour Street,,51.5137892,-0.134057824536853
1070,London,,GB,3-9 Heddon St,,51.5107288,-0.1393024
1071,London,,GB,66 Chandos Place,,51.5103409,-0.1245423
1072,London,,GB,6-8 Hanbury Street,,51.5202629,-0.074075
1073,London,,GB,25 New Quebec Street,,51.514952,-0.158385
1074,London,,GB,73 Old Brompton Road,,51.4928759536943,-0.176558382809162
1075,London,,GB,30 Queen's Gate Mews,,51.4992491095565,-0.180797918037262
1076,London,,GB,18 Wilton Row,,51.501462,-0.155004
1077,London,,GB,49 Columbia Road,,51.5289277153112,-0.0702632793320869
1078,London,,GB,1 Wellington Terrace,,51.5100255,-0.1922685
1079,London,,GB,82 Cleveland Street,,51.522088,-0.140496
1080,London,,GB,36 Dean Street,,51.5135487,-0.1322316
